NORAD_CAT_ID,OBJECT_NAME,OBJECT_TYPE,EPOCH,MEAN_MOTION,ECCENTRICITY,INCLINATION,RA_OF_ASC_NODE,ARG_OF_PERICENTER,MEAN_ANOMALY,BSTAR,MEAN_MOTION_DOT,MEAN_MOTION_DDOT,TLE_LINE0,TLE_LINE1,TLE_LINE2,SEMIMAJOR_AXIS,PERIOD,APOGEE,PERIGEE,DECAYED
56449.0,STARLINK-5993,PAYLOAD,2023-10-08 03:18:22,14.98338341,0.000295,70.0005,212.3996,267.0986,92.9835,4.7241e-05,4.71e-06,0.0,0 STARLINK-5993,1 56449U 23064B   23281.13776384  .00000471  00000-0  47241-4 0  9992,2 56449  70.0005 212.3996 0002950 267.0986  92.9835 14.98338341 23250,6950.167,96.106,574.082,569.982,0.0
56449.0,STARLINK-5993,PAYLOAD,2023-10-08 12:55:11,14.98336293,0.0002646,70.0015,211.3899,270.2642,89.8214,-5.3785e-05,-7.35e-06,0.0,0 STARLINK-5993,1 56449U 23064B   23281.53832722 -.00000735  00000-0 -53785-4 0  9990,2 56449  70.0015 211.3899 0002646 270.2642  89.8214 14.98336293 22955,6950.173,96.107,573.877,570.199,0.0
56449.0,STARLINK-5993,PAYLOAD,2023-10-08 20:55:51,14.98325317,0.00028,70.0015,210.548,270.8688,89.215,0.00011707,1.304e-05,0.0,0 STARLINK-5993,1 56449U 23064B   23281.87212914  .00001304  00000-0  11707-3 0  9990,2 56449  70.0015 210.5480 0002800 270.8688  89.2150 14.98325317 23005,6950.207,96.107,574.018,570.126,0.0
56449.0,STARLINK-5993,PAYLOAD,2023-10-09 03:20:23,14.98335007,0.0002964,70.0008,209.8746,269.434,90.6479,0.00016284,1.851e-05,0.0,0 STARLINK-5993,1 56449U 23064B   23282.13916179  .00001851  00000-0  16284-3 0  9996,2 56449  70.0008 209.8746 0002964 269.4340  90.6479 14.98335007 23404,6950.177,96.107,574.102,569.982,0.0
56449.0,STARLINK-5993,PAYLOAD,2023-10-09 12:57:12,14.98328031,0.0002352,70.0025,208.8653,277.7512,82.338,3.269e-05,2.97e-06,0.0,0 STARLINK-5993,1 56449U 23064B   23282.53973025  .00000297  00000-0  32690-4 0  9996,2 56449  70.0025 208.8653 0002352 277.7512  82.3380 14.98328031 23108,6950.199,96.107,573.699,570.429,0.0
56449.0,STARLINK-5993,PAYLOAD,2023-10-09 20:57:53,14.98326154,0.0002592,70.0024,208.0242,273.0282,87.058,-4.6472e-06,-1.48e-06,0.0,0 STARLINK-5993,1 56449U 23064B   23282.87353180 -.00000148  00000-0 -46472-5 0  9998,2 56449  70.0024 208.0242 0002592 273.0282  87.0580 14.98326154 23155,6950.205,96.107,573.871,570.268,0.0
56449.0,STARLINK-5993,PAYLOAD,2023-10-10 12:59:14,14.98329132,0.0002045,70.0037,206.3422,277.0202,83.0724,-0.00017238,-2.149e-05,0.0,0 STARLINK-5993,1 56449U 23064B   23283.54113624 -.00002149  00000-0 -17238-3 0  9999,2 56449  70.0037 206.3422 0002045 277.0202  83.0724 14.98329132 23255,6950.196,96.107,573.482,570.639,0.0
56449.0,STARLINK-5993,PAYLOAD,2023-10-10 20:59:54,14.98320973,0.000288,70.0031,205.5001,272.1484,87.9345,-4.8611e-05,-6.73e-06,0.0,0 STARLINK-5993,1 56449U 23064B   23283.87493707 -.00000673  00000-0 -48611-4 0  9998,2 56449  70.0031 205.5001 0002880 272.1484  87.9345 14.98320973 23300,6950.221,96.108,574.087,570.084,0.0
56449.0,STARLINK-5993,PAYLOAD,2023-10-11 05:00:34,14.98331272,0.0002856,70.0012,204.6576,267.9049,92.1783,-4.0623e-05,-5.78e-06,0.0,0 STARLINK-5993,1 56449U 23064B   23284.20873112 -.00000578  00000-0 -40623-4 0  9997,2 56449  70.0012 204.6576 0002856 267.9049  92.1783 14.98331272 23351,6950.189,96.107,574.039,570.069,0.0
56449.0,STARLINK-5993,PAYLOAD,2023-10-11 17:49:39,14.98321352,0.0002738,70.0016,203.3112,269.1257,90.9588,6.078e-05,6.32e-06,0.0,0 STARLINK-5993,1 56449U 23064B   23284.74281561  .00000632  00000-0  60780-4 0  9992,2 56449  70.0016 203.3112 0002738 269.1257  90.9588 14.98321352 23796,6950.22,96.108,573.988,570.182,0.0
56449.0,STARLINK-5993,PAYLOAD,2023-10-12 11:27:08,14.98329628,0.000194,70.0035,201.4601,283.9018,76.1925,1.088e-05,3.7e-07,0.0,0 STARLINK-5993,1 56449U 23064B   23285.47717613  .00000037  00000-0  10880-4 0  9990,2 56449  70.0035 201.4601 0001940 283.9018  76.1925 14.98329628 23540,6950.194,96.107,573.407,570.711,0.0
56449.0,STARLINK-5993,PAYLOAD,2023-10-12 19:27:47,14.98328306,0.0002713,70.0035,200.6182,269.1444,90.9404,8.7046e-05,9.46e-06,0.0,0 STARLINK-5993,1 56449U 23064B   23285.81097185  .00000946  00000-0  87046-4 0  9990,2 56449  70.0035 200.6182 0002713 269.1444  90.9404 14.98328306 23956,6950.198,96.107,573.949,570.178,0.0
56449.0,STARLINK-5993,PAYLOAD,2023-10-12 21:03:56,14.98328551,0.0002689,70.0014,200.4501,271.2921,88.793,5.4861e-05,5.62e-06,0.0,0 STARLINK-5993,1 56449U 23064B   23285.87773276  .00000562  00000-0  54861-4 0  9991,2 56449  70.0014 200.4501 0002689 271.2921  88.7930 14.98328551 23605,6950.197,96.107,573.931,570.193,0.0
56449.0,STARLINK-5993,PAYLOAD,2023-10-13 11:29:08,14.98333737,0.0002433,70.0022,198.9356,262.3348,97.7535,5.0261e-05,5.07e-06,0.0,0 STARLINK-5993,1 56449U 23064B   23286.47856812  .00000507  00000-0  50261-4 0  9995,2 56449  70.0022 198.9356 0002433 262.3348  97.7535 14.98333737 23696,6950.181,96.107,573.737,570.355,0.0
56449.0,STARLINK-5993,PAYLOAD,2023-10-13 21:05:56,14.98333425,0.000271,70.0016,197.9258,266.4725,93.6124,2.8265e-05,2.44e-06,0.0,0 STARLINK-5993,1 56449U 23064B   23286.87912749  .00000244  00000-0  28265-4 0  9998,2 56449  70.0016 197.9258 0002710 266.4725  93.6124 14.98333425 24112,6950.182,96.107,573.931,570.164,0.0
56449.0,STARLINK-5993,PAYLOAD,2023-10-14 03:30:27,14.98343721,0.0002661,70.0012,197.2516,262.4184,97.6672,0.00010821,1.199e-05,0.0,0 STARLINK-5993,1 56449U 23064B   23287.14615678  .00001199  00000-0  10821-3 0  9998,2 56449  70.0012 197.2516 0002661 262.4184  97.6672 14.98343721 24154,6950.15,96.106,573.865,570.166,0.0
56449.0,STARLINK-5993,PAYLOAD,2023-10-14 11:31:09,14.98333456,0.0002624,70.0011,196.4105,278.156,81.9302,-0.00014007,-1.764e-05,0.0,0 STARLINK-5993,1 56449U 23064B   23287.47996960 -.00001764  00000-0 -14007-3 0  9990,2 56449  70.0011 196.4105 0002624 278.1560  81.9302 14.98333456 23844,6950.182,96.107,573.871,570.223,0.0
56449.0,STARLINK-5993,PAYLOAD,2023-10-14 21:07:59,14.98309803,0.0002935,70.0014,195.4008,272.811,87.2713,-0.00023045,-2.84e-05,0.0,0 STARLINK-5993,1 56449U 23064B   23287.88054766 -.00002840  00000-0 -23045-3 0  9992,2 56449  70.0014 195.4008 0002935 272.8110  87.2713 14.98309803 24266,6950.255,96.108,574.16,570.08,0.0
56449.0,STARLINK-5993,PAYLOAD,2023-10-15 03:32:31,14.98317791,0.0002884,70.0013,194.7271,271.456,88.6269,-0.00020453,-2.532e-05,0.0,0 STARLINK-5993,1 56449U 23064B   23288.14758403 -.00002532  00000-0 -20453-3 0  9999,2 56449  70.0013 194.7271 0002884 271.4560  88.6269 14.98317791 24307,6950.231,96.108,574.1,570.091,0.0
56449.0,STARLINK-5993,PAYLOAD,2023-10-15 11:33:11,14.98322197,0.0003133,70.0005,193.8858,267.9054,92.1747,-7.7985e-05,-1.023e-05,0.0,0 STARLINK-5993,1 56449U 23064B   23288.48137883 -.00001023  00000-0 -77985-4 0  9996,2 56449  70.0005 193.8858 0003133 267.9054  92.1747 14.98322197 24357,6950.217,96.107,574.26,569.905,0.0
56449.0,STARLINK-5993,PAYLOAD,2023-10-15 21:09:58,14.98330275,0.0002996,70.001,192.877,270.8501,89.2314,4.7519e-06,-3.6e-07,0.0,0 STARLINK-5993,1 56449U 23064B   23288.88193249 -.00000036  00000-0  47519-5 0  9991,2 56449  70.0010 192.8770 0002996 270.8501  89.2314 14.98330275 24411,6950.192,96.107,574.139,569.975,0.0
56449.0,STARLINK-5993,PAYLOAD,2023-10-16 03:34:30,14.98341173,0.000298,70.0009,192.203,270.4399,89.6418,1.3845e-05,7.2e-07,0.0,0 STARLINK-5993,1 56449U 23064B   23289.14896480  .00000072  00000-0  13845-4 0  9991,2 56449  70.0009 192.2030 0002980 270.4399  89.6418 14.98341173 24458,6950.158,96.106,574.094,569.952,0.0
56449.0,STARLINK-5993,PAYLOAD,2023-10-16 11:35:10,14.98342522,0.0002945,70.0008,191.3617,273.4942,86.588,-4.8148e-05,-6.68e-06,0.0,0 STARLINK-5993,1 56449U 23064B   23289.48276421 -.00000668  00000-0 -48148-4 0  9992,2 56449  70.0008 191.3617 0002945 273.4942  86.5880 14.98342522 24140,6950.154,96.106,574.066,569.972,0.0
56449.0,STARLINK-5993,PAYLOAD,2023-10-18 02:02:24,14.98333375,0.0003034,70.0008,187.3228,271.6478,88.4333,-6.2923e-05,-8.44e-06,0.0,0 STARLINK-5993,1 56449U 23064B   23291.08501076 -.00000844  00000-0 -62923-4 0  9991,2 56449  70.0008 187.3228 0003034 271.6478  88.4333 14.98333375 24383,6950.182,96.107,574.156,569.939,0.0
56449.0,STARLINK-5993,PAYLOAD,2023-10-18 10:03:05,14.98334831,0.0002992,70.0011,186.4811,271.8599,88.2218,-5.5628e-05,-7.57e-06,0.0,0 STARLINK-5993,1 56449U 23064B   23291.41880855 -.00000757  00000-0 -55628-4 0  9990,2 56449  70.0011 186.4811 0002992 271.8599  88.2218 14.98334831 24796,6950.178,96.107,574.122,569.963,0.0
56449.0,STARLINK-5993,PAYLOAD,2023-10-18 22:52:09,14.98333993,0.000324,70.001,185.1342,267.1799,92.8989,-2.2258e-05,-3.59e-06,0.0,0 STARLINK-5993,1 56449U 23064B   23291.95288529 -.00000359  00000-0 -22258-4 0  9990,2 56449  70.0010 185.1342 0003240 267.1799  92.8989 14.98333993 24511,6950.181,96.107,574.297,569.794,0.0
56449.0,STARLINK-5993,PAYLOAD,2023-10-19 03:40:32,14.98337458,0.0002805,70.0015,184.6284,270.843,89.2408,0.00010202,1.125e-05,0.0,0 STARLINK-5993,1 56449U 23064B   23292.15315807  .00001125  00000-0  10202-3 0  9998,2 56449  70.0015 184.6284 0002805 270.8430  89.2408 14.98337458 24903,6950.17,96.107,573.984,570.085,0.0
56449.0,STARLINK-5993,PAYLOAD,2023-10-19 22:54:10,14.98331162,0.0002773,70.0008,182.608,266.5394,93.5447,-8.0513e-06,-1.89e-06,0.0,0 STARLINK-5993,1 56449U 23064B   23292.95428333 -.00000189  00000-0 -80513-5 0  9990,2 56449  70.0008 182.6080 0002773 266.5394  93.5447 14.98331162 24662,6950.189,96.107,573.982,570.127,0.0
56449.0,STARLINK-5993,PAYLOAD,2023-10-20 02:06:26,14.98332507,0.0002616,70.0015,182.2714,267.6974,92.3885,7.3103e-06,-6e-08,0.0,0 STARLINK-5993,1 56449U 23064B   23293.08780212 -.00000006  00000-0  73103-5 0  9996,2 56449  70.0015 182.2714 0002616 267.6974  92.3885 14.98332507 25042,6950.185,96.107,573.868,570.232,0.0
56449.0,STARLINK-5993,PAYLOAD,2023-10-20 16:31:39,14.98326347,0.0002475,70.0032,180.7588,260.1543,99.9336,-0.00012664,-1.603e-05,0.0,0 STARLINK-5993,1 56449U 23064B   23293.68865301 -.00001603  00000-0 -12664-3 0  9993,2 56449  70.0032 180.7588 0002475 260.1543  99.9336 14.98326347 25135,6950.204,96.107,573.789,570.349,0.0
